{"type": "FeatureCollection", "features": [ {"type": "Feature", "properties": {"norad_id": 43648, "name": "BEIDOU-3 M15 (C34)", "group": "gnss", "lat": -5.683332152708843, "lon": -57.92873390206809, "alt_km": 21518.887125707948, "timestamp": "2025-12-21T22:41:41.704221+00:00", "meta": {"OBJECT_NAME": "BEIDOU-3 M15 (C34)", "OBJECT_ID": "2018-078B", "EPOCH": "2025-12-21T10:03:31.555008", "MEAN_MOTION": 1.86232355, "ECCENTRICITY": 0.0004029, "INCLINATION": 54.2498, "RA_OF_ASC_NODE": 306.2184, "ARG_OF_PERICENTER": 19.9234, "MEAN_ANOMALY": 340.0899, "EPHEMERIS_TYPE": 0, "CLASSIFICATION_TYPE": "U", "NORAD_CAT_ID": 43648, "ELEMENT_SET_NO": 999, "REV_AT_EPOCH": 4886, "BSTAR": 0, "MEAN_MOTION_DOT": -6.1e-07, "MEAN_MOTION_DDOT": 0}, "tle": {"line1": "1 43648U 18078B   25355.41911522 -.00000061  00000+0  00000+0 0  9990", "line2": "2 43648  54.2498 306.2184 0004029  19.9234 340.0899  1.86232355 48860"}}, "geometry": {"type": "Point", "coordinates": [-57.92873390206809, -5.683332152708843]}}, {"type": "Feature", "properties": {"norad_id": 43683, "name": "BEIDOU-3 G1 (C59)", "group": "gnss", "lat": 2.483022758856963, "lon": -148.7856513802939, "alt_km": 35783.83511514866, "timestamp": "2025-12-21T22:41:41.704233+00:00", "meta": {"OBJECT_NAME": "BEIDOU-3 G1 (C59)", "OBJECT_ID": "2018-085A", "EPOCH": "2025-12-21T13:51:51.422400", "MEAN_MOTION": 1.0026809, "ECCENTRICITY": 0.00015498, "INCLINATION": 2.6287, "RA_OF_ASC_NODE": 102.7083, "ARG_OF_PERICENTER": 46.1748, "MEAN_ANOMALY": 289.4828, "EPHEMERIS_TYPE": 0, "CLASSIFICATION_TYPE": "U", "NORAD_CAT_ID": 43683, "ELEMENT_SET_NO": 999, "REV_AT_EPOCH": 2627, "BSTAR": 0, "MEAN_MOTION_DOT": -2.57e-06, "MEAN_MOTION_DDOT": 0}, "tle": {"line1": "1 43683U 18085A   25355.57767850 -.00000257  00000+0  00000+0 0  9994", "line2": "2 43683   2.6287 102.7083 0001549  46.1748 289.4828  1.00268090 26275"}}, "geometry": {"type": "Point", "coordinates": [-148.7856513802939, 2.483022758856963]}}, {"type": "Feature", "properties": {"norad_id": 43687, "name": "COSMOS 2529 (757)", "group": "gnss", "lat": 57.46421578497207, "lon": -30.492587852442767, "alt_km": 19137.645227605663, "timestamp": "2025-12-21T22:41:41.704249+00:00", "meta": {"OBJECT_NAME": "COSMOS 2529 (757)", "OBJECT_ID": "2018-086A", "EPOCH": "2025-12-21T07:58:09.386112", "MEAN_MOTION": 2.13102154, "ECCENTRICITY": 0.00069464, "INCLINATION": 64.2925, "RA_OF_ASC_NODE": 198.598, "ARG_OF_PERICENTER": 253.6032, "MEAN_ANOMALY": 106.3925, "EPHEMERIS_TYPE": 0, "CLASSIFICATION_TYPE": "U", "NORAD_CAT_ID": 43687, "ELEMENT_SET_NO": 999, "REV_AT_EPOCH": 5549, "BSTAR": 0, "MEAN_MOTION_DOT": 9.7e-07, "MEAN_MOTION_DDOT": 0}, "tle": {"line1": "1 43687U 18086A   25355.33205308  .00000097  00000+0  00000+0 0  9999", "line2": "2 43687  64.2925 198.5980 0006946 253.6032 106.3925  2.13102154 55492"}}, "geometry": {"type": "Point", "coordinates": [-30.492587852442767, 57.46421578497207]}}, {"type": "Feature", "properties": {"norad_id": 43706, "name": "BEIDOU-3 M17 (C36)", "group": "gnss", "lat": -48.03085670138213, "lon": 61.79245818660773, "alt_km": 21525.528110528077, "timestamp": "2025-12-21T22:41:41.704260+00:00", "meta": {"OBJECT_NAME": "BEIDOU-3 M17 (C36)", "OBJECT_ID": "2018-093A", "EPOCH": "2025-12-20T12:04:20.840736", "MEAN_MOTION": 1.86228485, "ECCENTRICITY": 0.00060883, "INCLINATION": 54.1751, "RA_OF_ASC_NODE": 188.3582, "ARG_OF_PERICENTER": 307.8758, "MEAN_ANOMALY": 51.559, "EPHEMERIS_TYPE": 0, "CLASSIFICATION_TYPE": "U", "NORAD_CAT_ID": 43706, "ELEMENT_SET_NO": 999, "REV_AT_EPOCH": 4820, "BSTAR": 0, "MEAN_MOTION_DOT": 9.7e-07, "MEAN_MOTION_DDOT": 0}, "tle": {"line1": "1 43706U 18093A   25354.50301899  .00000097  00000+0  00000+0 0  9999", "line2": "2 43706  54.1751 188.3582 0006088 307.8758  51.5590  1.86228485 48203"}}, "geometry": {"type": "Point", "coordinates": [61.79245818660773, -48.03085670138213]}}, {"type": "Feature", "properties": {"norad_id": 43707, "name": "BEIDOU-3 M18 (C37)", "group": "gnss", "lat": -16.57624557847868, "lon": 175.8808730737123, "alt_km": 21514.009693114807, "timestamp": "2025-12-21T22:41:41.704272+00:00", "meta": {"OBJECT_NAME": "BEIDOU-3 M18 (C37)", "OBJECT_ID": "2018-093B", "EPOCH": "2025-12-20T21:39:28.587744", "MEAN_MOTION": 1.86226757, "ECCENTRICITY": 0.00062168, "INCLINATION": 54.1741, "RA_OF_ASC_NODE": 188.3365, "ARG_OF_PERICENTER": 353.7926, "MEAN_ANOMALY": 6.2524, "EPHEMERIS_TYPE": 0, "CLASSIFICATION_TYPE": "U", "NORAD_CAT_ID": 43707, "ELEMENT_SET_NO": 999, "REV_AT_EPOCH": 4821, "BSTAR": 0, "MEAN_MOTION_DOT": 9.5e-07, "MEAN_MOTION_DDOT": 0}, "tle": {"line1": "1 43707U 18093B   25354.90241421  .00000095  00000+0  00000+0 0  9996", "line2": "2 43707  54.1741 188.3365 0006216 353.7926   6.2524  1.86226757 48217"}}, "geometry": {"type": "Point", "coordinates": [175.8808730737123, -16.57624557847868]}}, {"type": "Feature", "properties": {"norad_id": 43873, "name": "GPS BIII-1  (PRN 04)", "group": "gnss", "lat": -38.782158564907625, "lon": 65.79698343807597, "alt_km": 20230.125159863368, "timestamp": "2025-12-21T22:41:41.704286+00:00", "meta": {"OBJECT_NAME": "GPS BIII-1  (PRN 04)", "OBJECT_ID": "2018-109A", "EPOCH": "2025-12-20T14:49:36.231744", "MEAN_MOTION": 2.00553966, "ECCENTRICITY": 0.0037575, "INCLINATION": 55.571, "RA_OF_ASC_NODE": 99.2363, "ARG_OF_PERICENTER": 195.36, "MEAN_ANOMALY": 236.122, "EPHEMERIS_TYPE": 0, "CLASSIFICATION_TYPE": "U", "NORAD_CAT_ID": 43873, "ELEMENT_SET_NO": 999, "REV_AT_EPOCH": 5149, "BSTAR": 0, "MEAN_MOTION_DOT": -1.2e-07, "MEAN_MOTION_DDOT": 0}, "tle": {"line1": "1 43873U 18109A   25354.61778046 -.00000012  00000+0  00000+0 0  9994", "line2": "2 43873  55.5710  99.2363 0037575 195.3600 236.1220  2.00553966 51494"}}, "geometry": {"type": "Point", "coordinates": [65.79698343807597, -38.782158564907625]}}, {"type": "Feature", "properties": {"norad_id": 44231, "name": "BEIDOU-2 G8 (C01)", "group": "gnss", "lat": 1.0501561278798852, "lon": -144.42198866327496, "alt_km": 35800.72221209283, "timestamp": "2025-12-21T22:41:41.704310+00:00", "meta": {"OBJECT_NAME": "BEIDOU-2 G8 (C01)", "OBJECT_ID": "2019-027A", "EPOCH": "2025-12-19T12:14:23.449632", "MEAN_MOTION": 1.00276563, "ECCENTRICITY": 0.0008196, "INCLINATION": 1.6785, "RA_OF_ASC_NODE": 74.7229, "ARG_OF_PERICENTER": 258.5641, "MEAN_ANOMALY": 83.1013, "EPHEMERIS_TYPE": 0, "CLASSIFICATION_TYPE": "U", "NORAD_CAT_ID": 44231, "ELEMENT_SET_NO": 999, "REV_AT_EPOCH": 2427, "BSTAR": 0, "MEAN_MOTION_DOT": -2.24e-06, "MEAN_MOTION_DDOT": 0}, "tle": {"line1": "1 44231U 19027A   25353.50999363 -.00000224  00000+0  00000+0 0  9992", "line2": "2 44231   1.6785  74.7229 0008196 258.5641  83.1013  1.00276563 24270"}}, "geometry": {"type": "Point", "coordinates": [-144.42198866327496, 1.0501561278798852]}}, {"type": "Feature", "properties": {"norad_id": 44299, "name": "COSMOS 2534 (758)", "group": "gnss", "lat": -54.805552882419036, "lon": 61.524915516632085, "alt_km": 19118.650967630867, "timestamp": "2025-12-21T22:41:41.704323+00:00", "meta": {"OBJECT_NAME": "COSMOS 2534 (758)", "OBJECT_ID": "2019-030A", "EPOCH": "2025-12-21T10:55:51.060576", "MEAN_MOTION": 2.13102432, "ECCENTRICITY": 0.00087289, "INCLINATION": 64.366, "RA_OF_ASC_NODE": 198.5992, "ARG_OF_PERICENTER": 284.1192, "MEAN_ANOMALY": 304.9695, "EPHEMERIS_TYPE": 0, "CLASSIFICATION_TYPE": "U", "NORAD_CAT_ID": 44299, "ELEMENT_SET_NO": 999, "REV_AT_EPOCH": 5113, "BSTAR": 0, "MEAN_MOTION_DOT": 9.7e-07, "MEAN_MOTION_DDOT": 0}, "tle": {"line1": "1 44299U 19030A   25355.45545209  .00000097  00000+0  00000+0 0  9999", "line2": "2 44299  64.3660 198.5992 0008728 284.1192 304.9695  2.13102432 51134"}}, "geometry": {"type": "Point", "coordinates": [61.524915516632085, -54.805552882419036]}}, {"type": "Feature", "properties": {"norad_id": 44337, "name": "BEIDOU-3 IGSO-2 (C39)", "group": "gnss", "lat": 24.342105353357702, "lon": 178.7457728506572, "alt_km": 35941.538130960296, "timestamp": "2025-12-21T22:41:41.704334+00:00", "meta": {"OBJECT_NAME": "BEIDOU-3 IGSO-2 (C39)", "OBJECT_ID": "2019-035A", "EPOCH": "2025-12-21T14:41:08.547936", "MEAN_MOTION": 1.00268657, "ECCENTRICITY": 0.00376681, "INCLINATION": 55.2285, "RA_OF_ASC_NODE": 160.4234, "ARG_OF_PERICENTER": 202.252, "MEAN_ANOMALY": 67.4255, "EPHEMERIS_TYPE": 0, "CLASSIFICATION_TYPE": "U", "NORAD_CAT_ID": 44337, "ELEMENT_SET_NO": 999, "REV_AT_EPOCH": 2388, "BSTAR": 0, "MEAN_MOTION_DOT": -7.3e-07, "MEAN_MOTION_DDOT": 0}, "tle": {"line1": "1 44337U 19035A   25355.61190449 -.00000073  00000+0  00000+0 0  9992", "line2": "2 44337  55.2285 160.4234 0037668 202.2520  67.4255  1.00268657 23888"}}, "geometry": {"type": "Point", "coordinates": [178.7457728506572, 24.342105353357702]}}, {"type": "Feature", "properties": {"norad_id": 44506, "name": "GPS BIII-2  (PRN 18)", "group": "gnss", "lat": -22.59483526982418, "lon": 174.66146497758663, "alt_km": 20033.94303275266, "timestamp": "2025-12-21T22:41:41.704346+00:00", "meta": {"OBJECT_NAME": "GPS BIII-2  (PRN 18)", "OBJECT_ID": "2019-056A", "EPOCH": "2025-12-21T09:31:28.987392", "MEAN_MOTION": 2.00566631, "ECCENTRICITY": 0.00577334, "INCLINATION": 55.7184, "RA_OF_ASC_NODE": 338.2094, "ARG_OF_PERICENTER": 198.5612, "MEAN_ANOMALY": 332.7674, "EPHEMERIS_TYPE": 0, "CLASSIFICATION_TYPE": "U", "NORAD_CAT_ID": 44506, "ELEMENT_SET_NO": 999, "REV_AT_EPOCH": 4650, "BSTAR": 0, "MEAN_MOTION_DOT": -7.2e-07, "MEAN_MOTION_DDOT": 0}, "tle": {"line1": "1 44506U 19056A   25355.39686328 -.00000072  00000+0  00000+0 0  9993", "line2": "2 44506  55.7184 338.2094 0057733 198.5612 332.7674  2.00566631 46503"}}, "geometry": {"type": "Point", "coordinates": [174.66146497758663, -22.59483526982418]}}]}